{
  "type": "FeatureCollection",
  "features": [
    {
      "type": "Feature",
      "properties": {
        "norad_id": 25590,
        "name": "COSMOS 2361",
        "group": "musson",
        "lat": 22.77439805929896,
        "lon": 150.78365672623178,
        "alt_km": 979.2910671667287,
        "timestamp": "2025-12-26T16:33:55.842037+00:00",
        "meta_object_name": "COSMOS 2361",
        "meta_object_id": "1998-076A",
        "meta_epoch": "2025-12-26T00:22:01.527744",
        "meta_mean_motion": 13.73218941,
        "meta_eccentricity": 0.00303552,
        "meta_inclination": 82.9346,
        "meta_ra_of_asc_node": 334.2672,
        "meta_arg_of_pericenter": 227.1925,
        "meta_mean_anomaly": 195.3497,
        "meta_ephemeris_type": 0,
        "meta_classification_type": "U",
        "meta_norad_cat_id": 25590,
        "meta_element_set_no": 999,
        "meta_rev_at_epoch": 35293,
        "meta_bstar": 5.6917113e-05,
        "meta_mean_motion_dot": 6.8e-07,
        "meta_mean_motion_ddot": 0,
        "tle_line1": "1 25590U 98076A   25360.01529546  .00000068  00000+0  56917-4 0  9994",
        "tle_line2": "2 25590  82.9346 334.2672 0030355 227.1925 195.3497 13.73218941352935"
      },
      "geometry": {
        "type": "Point",
        "coordinates": [
          150.78365672623178,
          22.77439805929896
        ]
      }
    },
    {
      "type": "Feature",
      "properties": {
        "norad_id": 26818,
        "name": "COSMOS 2378",
        "group": "musson",
        "lat": -80.33648257155495,
        "lon": -57.431096827135505,
        "alt_km": 1000.718075447061,
        "timestamp": "2025-12-26T16:33:55.842058+00:00",
        "meta_object_name": "COSMOS 2378",
        "meta_object_id": "2001-023A",
        "meta_epoch": "2025-12-26T01:33:12.760992",
        "meta_mean_motion": 13.74143054,
        "meta_eccentricity": 0.00332481,
        "meta_inclination": 82.9272,
        "meta_ra_of_asc_node": 349.8438,
        "meta_arg_of_pericenter": 167.5875,
        "meta_mean_anomaly": 256.1209,
        "meta_ephemeris_type": 0,
        "meta_classification_type": "U",
        "meta_norad_cat_id": 26818,
        "meta_element_set_no": 999,
        "meta_rev_at_epoch": 23106,
        "meta_bstar": 4.077509e-05,
        "meta_mean_motion_dot": 5.4e-07,
        "meta_mean_motion_ddot": 0,
        "tle_line1": "1 26818U 01023A   25360.06473103  .00000054  00000+0  40775-4 0  9996",
        "tle_line2": "2 26818  82.9272 349.8438 0033248 167.5875 256.1209 13.74143054231064"
      },
      "geometry": {
        "type": "Point",
        "coordinates": [
          -57.431096827135505,
          -80.33648257155495
        ]
      }
    },
    {
      "type": "Feature",
      "properties": {
        "norad_id": 27436,
        "name": "COSMOS 2389",
        "group": "musson",
        "lat": 5.635640468046122,
        "lon": 115.9586117401586,
        "alt_km": 1013.6613632681037,
        "timestamp": "2025-12-26T16:33:55.842070+00:00",
        "meta_object_name": "COSMOS 2389",
        "meta_object_id": "2002-026A",
        "meta_epoch": "2025-12-26T05:46:43.678848",
        "meta_mean_motion": 13.75156079,
        "meta_eccentricity": 0.00470185,
        "meta_inclination": 82.9514,
        "meta_ra_of_asc_node": 296.9907,
        "meta_arg_of_pericenter": 23.859,
        "meta_mean_anomaly": 86.3341,
        "meta_ephemeris_type": 0,
        "meta_classification_type": "U",
        "meta_norad_cat_id": 27436,
        "meta_element_set_no": 999,
        "meta_rev_at_epoch": 18334,
        "meta_bstar": 6.6808591e-05,
        "meta_mean_motion_dot": 8e-07,
        "meta_mean_motion_ddot": 0,
        "tle_line1": "1 27436U 02026A   25360.24078332  .00000080  00000+0  66809-4 0  9997",
        "tle_line2": "2 27436  82.9514 296.9907 0047018  23.8590  86.3341 13.75156079183340"
      },
      "geometry": {
        "type": "Point",
        "coordinates": [
          115.9586117401586,
          5.635640468046122
        ]
      }
    },
    {
      "type": "Feature",
      "properties": {
        "norad_id": 27818,
        "name": "COSMOS 2398",
        "group": "musson",
        "lat": -12.6447325243156,
        "lon": -99.17267746478056,
        "alt_km": 994.1564079017153,
        "timestamp": "2025-12-26T16:33:55.842080+00:00",
        "meta_object_name": "COSMOS 2398",
        "meta_object_id": "2003-023A",
        "meta_epoch": "2025-12-26T05:07:17.996736",
        "meta_mean_motion": 13.72387226,
        "meta_eccentricity": 0.0032681,
        "meta_inclination": 82.9482,
        "meta_ra_of_asc_node": 262.7699,
        "meta_arg_of_pericenter": 75.9149,
        "meta_mean_anomaly": 77.3477,
        "meta_ephemeris_type": 0,
        "meta_classification_type": "U",
        "meta_norad_cat_id": 27818,
        "meta_element_set_no": 999,
        "meta_rev_at_epoch": 13001,
        "meta_bstar": 6.7800998e-05,
        "meta_mean_motion_dot": 7.8e-07,
        "meta_mean_motion_ddot": 0,
        "tle_line1": "1 27818U 03023A   25360.21340274  .00000078  00000+0  67801-4 0  9993",
        "tle_line2": "2 27818  82.9482 262.7699 0032681  75.9149  77.3477 13.72387226130018"
      },
      "geometry": {
        "type": "Point",
        "coordinates": [
          -99.17267746478056,
          -12.6447325243156
        ]
      }
    },
    {
      "type": "Feature",
      "properties": {
        "norad_id": 28380,
        "name": "COSMOS 2407",
        "group": "musson",
        "lat": 20.241243837635682,
        "lon": -154.82476629046786,
        "alt_km": 947.8143309480065,
        "timestamp": "2025-12-26T16:33:55.842100+00:00",
        "meta_object_name": "COSMOS 2407",
        "meta_object_id": "2004-028A",
        "meta_epoch": "2025-12-26T01:31:13.832256",
        "meta_mean_motion": 13.763151,
        "meta_eccentricity": 0.00396832,
        "meta_inclination": 82.9593,
        "meta_ra_of_asc_node": 203.0276,
        "meta_arg_of_pericenter": 18.3923,
        "meta_mean_anomaly": 137.8378,
        "meta_ephemeris_type": 0,
        "meta_classification_type": "U",
        "meta_norad_cat_id": 28380,
        "meta_element_set_no": 999,
        "meta_rev_at_epoch": 7606,
        "meta_bstar": 3.602448e-05,
        "meta_mean_motion_dot": 5.1e-07,
        "meta_mean_motion_ddot": 0,
        "tle_line1": "1 28380U 04028A   25360.06335454  .00000051  00000+0  36024-4 0  9995",
        "tle_line2": "2 28380  82.9593 203.0276 0039683  18.3923 137.8378 13.76315100 76067"
      },
      "geometry": {
        "type": "Point",
        "coordinates": [
          -154.82476629046786,
          20.241243837635682
        ]
      }
    },
    {
      "type": "Feature",
      "properties": {
        "norad_id": 28521,
        "name": "COSMOS 2414",
        "group": "musson",
        "lat": 34.07591125940556,
        "lon": -10.691955817028033,
        "alt_km": 912.1022587844209,
        "timestamp": "2025-12-26T16:33:55.842112+00:00",
        "meta_object_name": "COSMOS 2414",
        "meta_object_id": "2005-002A",
        "meta_epoch": "2025-12-26T05:29:20.936256",
        "meta_mean_motion": 13.879046,
        "meta_eccentricity": 0.00414345,
        "meta_inclination": 82.9488,
        "meta_ra_of_asc_node": 174.4596,
        "meta_arg_of_pericenter": 102.3053,
        "meta_mean_anomaly": 258.2754,
        "meta_ephemeris_type": 0,
        "meta_classification_type": "U",
        "meta_norad_cat_id": 28521,
        "meta_element_set_no": 999,
        "meta_rev_at_epoch": 5982,
        "meta_bstar": 4.4991255e-05,
        "meta_mean_motion_dot": 7e-07,
        "meta_mean_motion_ddot": 0,
        "tle_line1": "1 28521U 05002A   25360.22871454  .00000070  00000+0  44991-4 0  9991",
        "tle_line2": "2 28521  82.9488 174.4596 0041434 102.3053 258.2754 13.87904600 59820"
      },
      "geometry": {
        "type": "Point",
        "coordinates": [
          -10.691955817028033,
          34.07591125940556
        ]
      }
    },
    {
      "type": "Feature",
      "properties": {
        "norad_id": 32052,
        "name": "COSMOS 2429",
        "group": "musson",
        "lat": -0.597268181709999,
        "lon": -27.049112775457708,
        "alt_km": 955.8180400523715,
        "timestamp": "2025-12-26T16:33:55.842122+00:00",
        "meta_object_name": "COSMOS 2429",
        "meta_object_id": "2007-038A",
        "meta_epoch": "2025-12-26T00:51:08.061408",
        "meta_mean_motion": 13.75150637,
        "meta_eccentricity": 0.00384448,
        "meta_inclination": 82.9809,
        "meta_ra_of_asc_node": 333.5069,
        "meta_arg_of_pericenter": 1.214,
        "meta_mean_anomaly": 358.9103,
        "meta_ephemeris_type": 0,
        "meta_classification_type": "U",
        "meta_norad_cat_id": 32052,
        "meta_element_set_no": 999,
        "meta_rev_at_epoch": 91785,
        "meta_bstar": 4.6145348e-05,
        "meta_mean_motion_dot": 6e-07,
        "meta_mean_motion_ddot": 0,
        "tle_line1": "1 32052U 07038A   25360.03550997  .00000060  00000+0  46145-4 0  9993",
        "tle_line2": "2 32052  82.9809 333.5069 0038444   1.2140 358.9103 13.75150637917857"
      },
      "geometry": {
        "type": "Point",
        "coordinates": [
          -27.049112775457708,
          -0.597268181709999
        ]
      }
    },
    {
      "type": "Feature",
      "properties": {
        "norad_id": 35635,
        "name": "COSMOS 2454",
        "group": "musson",
        "lat": -62.437165848246934,
        "lon": 144.36723152369746,
        "alt_km": 938.3697851519082,
        "timestamp": "2025-12-26T16:33:55.842132+00:00",
        "meta_object_name": "COSMOS 2454",
        "meta_object_id": "2009-039A",
        "meta_epoch": "2025-12-26T00:09:39.040704",
        "meta_mean_motion": 13.89930294,
        "meta_eccentricity": 0.00199493,
        "meta_inclination": 82.9559,
        "meta_ra_of_asc_node": 158.5879,
        "meta_arg_of_pericenter": 37.9318,
        "meta_mean_anomaly": 80.8204,
        "meta_ephemeris_type": 0,
        "meta_classification_type": "U",
        "meta_norad_cat_id": 35635,
        "meta_element_set_no": 999,
        "meta_rev_at_epoch": 83334,
        "meta_bstar": 5.4956356e-05,
        "meta_mean_motion_dot": 8.4e-07,
        "meta_mean_motion_ddot": 0,
        "tle_line1": "1 35635U 09039A   25360.00670186  .00000084  00000+0  54956-4 0  9991",
        "tle_line2": "2 35635  82.9559 158.5879 0019949  37.9318  80.8204 13.89930294833349"
      },
      "geometry": {
        "type": "Point",
        "coordinates": [
          144.36723152369746,
          -62.437165848246934
        ]
      }
    },
    {
      "type": "Feature",
      "properties": {
        "norad_id": 36519,
        "name": "COSMOS 2463",
        "group": "musson",
        "lat": 39.53131444610361,
        "lon": -169.39231900017668,
        "alt_km": 998.3972160011517,
        "timestamp": "2025-12-26T16:33:55.842142+00:00",
        "meta_object_name": "COSMOS 2463",
        "meta_object_id": "2010-017A",
        "meta_epoch": "2025-12-26T03:57:12.979584",
        "meta_mean_motion": 13.71650325,
        "meta_eccentricity": 0.00348292,
        "meta_inclination": 82.9603,
        "meta_ra_of_asc_node": 16.8464,
        "meta_arg_of_pericenter": 249.4013,
        "meta_mean_anomaly": 177.5936,
        "meta_ephemeris_type": 0,
        "meta_classification_type": "U",
        "meta_norad_cat_id": 36519,
        "meta_element_set_no": 999,
        "meta_rev_at_epoch": 78421,
        "meta_bstar": 3.5998771e-05,
        "meta_mean_motion_dot": 4.7e-07,
        "meta_mean_motion_ddot": 0,
        "tle_line1": "1 36519U 10017A   25360.16473356  .00000047  00000+0  35999-4 0  9993",
        "tle_line2": "2 36519  82.9603  16.8464 0034829 249.4013 177.5936 13.71650325784215"
      },
      "geometry": {
        "type": "Point",
        "coordinates": [
          -169.39231900017668,
          39.53131444610361
        ]
      }
    }
  ]
}